STARLINK-4591           
1 53607U 22104V   26068.75149280 -.00000529  00000+0 -15120-4 0  9998
2 53607  53.2164 238.8956 0001409  93.6563 266.4590 15.08841572195694
LEMUR-2-SIERRINI        
1 60579U 24149DR  26068.80891719  .00014386  00000+0  92040-3 0  9991
2 60579  97.6873 151.1225 0006580 147.8458 212.3173 15.08682764 85461
