[{"OBJECT_NAME":"STARLINK-4591","OBJECT_ID":"2022-104V","EPOCH":"2026-03-09T18:02:08.977920","MEAN_MOTION":15.08841572,"ECCENTRICITY":0.00014094,"INCLINATION":53.2164,"RA_OF_ASC_NODE":238.8956,"ARG_OF_PERICENTER":93.6563,"MEAN_ANOMALY":266.459,"EPHEMERIS_TYPE":0,"CLASSIFICATION_TYPE":"U","NORAD_CAT_ID":53607,"ELEMENT_SET_NO":999,"REV_AT_EPOCH":19569,"BSTAR":-1.512017e-5,"MEAN_MOTION_DOT":-5.29e-6,"MEAN_MOTION_DDOT":0},{"OBJECT_NAME":"LEMUR-2-SIERRINI","OBJECT_ID":"2024-149DR","EPOCH":"2026-03-09T19:24:50.445216","MEAN_MOTION":15.08682764,"ECCENTRICITY":0.00065795,"INCLINATION":97.6873,"RA_OF_ASC_NODE":151.1225,"ARG_OF_PERICENTER":147.8458,"MEAN_ANOMALY":212.3173,"EPHEMERIS_TYPE":0,"CLASSIFICATION_TYPE":"U","NORAD_CAT_ID":60579,"ELEMENT_SET_NO":999,"REV_AT_EPOCH":8546,"BSTAR":0.00092040134,"MEAN_MOTION_DOT":0.00014386,"MEAN_MOTION_DDOT":0}]
